STARLINK-1392           
1 45677U 20035W   24020.06981507  .00021163  00000+0  14344-2 0  9993
2 45677  53.0548 326.4680 0001409 103.7130 256.4016 15.06425918201226
STARLINK-1393           
1 45678U 20035X   24020.12971156  .00016158  00000+0  11006-2 0  9990
2 45678  53.0547 316.2007 0001430 116.9787 243.1348 15.06419346201357
STARLINK-1394           
1 45679U 20035Y   24020.79687561  .00014941  00000+0  10199-2 0  9998
2 45679  53.0537 313.2094 0001835  85.3298 274.7900 15.06397623201071
STARLINK-1395           
1 45680U 20035Z   24020.80423290  .00002663  00000+0  19760-3 0  9991
2 45680  53.0535 313.1690 0001935  84.0653 276.0556 15.06401369201068
STARLINK-1396           
1 45681U 20035AA  24020.16906274  .00068491  00000+0  31693-2 0  9998
2 45681  53.0471 306.5339 0003248 119.0247 241.1073 15.19519452201515
STARLINK-1397           
1 45682U 20035AB  24020.80794248  .00005826  00000+0  40973-3 0  9991
2 45682  53.0539 313.1547 0001417  63.1474 296.9660 15.06396076201064
STARLINK-1399           
1 45683U 20035AC  24020.78950345  .00007807  00000+0  54241-3 0  9995
2 45683  53.0546 313.2418 0001849  64.2021 295.9159 15.06400256201068
STARLINK-1401           
1 45684U 20035AD  24020.16512094  .00022998  00000+0  10034-2 0  9992
2 45684  53.0491 297.8450 0002102 319.4052  40.6787 15.22074369201649
STARLINK-1402           
1 45685U 20035AE  24020.82764976  .00014275  00000+0  97565-3 0  9998
2 45685  53.0537 307.4910 0001317 101.6466 258.4671 15.06386122201159
STARLINK-1404           
1 45686U 20035AF  24020.82267570  .00012724  00000+0  87192-3 0  9999
2 45686  53.0549 313.0893 0001982  98.0242 262.0972 15.06385071201073
STARLINK-1408           
1 45688U 20035AH  24019.95940596  .00015529  00000+0  57446-3 0  9994
2 45688  53.0838 273.0352 0006866 141.9444 218.2041 15.27870680201987
STARLINK-1413           
1 45689U 20035AJ  24020.11127576  .00020285  00000+0  13753-2 0  9997
2 45689  53.0554 316.2782 0001500 109.6282 250.4869 15.06439493201280
STARLINK-1414           
1 45690U 20035AK  24020.80058716  .00016725  00000+0  11391-2 0  9994
2 45690  53.0544 313.4112 0001523  93.9682 266.1481 15.06398889201008
STARLINK-1415           
1 45691U 20035AL  24020.22922885  .00020568  00000+0  13934-2 0  9993
2 45691  53.0545 315.7507 0001360  82.8048 277.3095 15.06459977201398
STARLINK-1416           
1 45692U 20035AM  24020.08917353  .00018328  00000+0  12453-2 0  9998
2 45692  53.0551 316.3858 0001580 100.4412 259.6755 15.06423713201360
STARLINK-1417           
1 45693U 20035AN  24020.83741808  .00007047  00000+0  49140-3 0  9992
2 45693  53.0553 313.0192 0001619  88.4091 271.7083 15.06406711201075
STARLINK-1420           
1 45695U 20035AQ  24020.77196761  .00005418  00000+0  38220-3 0  9996
2 45695  53.0553 293.3005 0001638  96.7631 263.3545 15.06414178201349
STARLINK-1422           
1 45696U 20035AR  24020.78212468  .00006820  00000+0  47637-3 0  9991
2 45696  53.0551 313.2718 0001775  74.7521 285.3664 15.06393966201063
STARLINK-1351           
1 45697U 20035AS  24020.75817326  .00003634  00000+0  26273-3 0  9996
2 45697  53.0543 293.3756 0001556  89.3118 270.8049 15.06399868201340
STARLINK-1370           
1 45698U 20035AT  24020.74617609  .00002426  00000+0  18166-3 0  9998
2 45698  53.0540 293.4274 0001696  70.8167 289.3005 15.06408126201354
STARLINK-1398           
1 45699U 20035AU  24020.73605547  .00004177  00000+0  29907-3 0  9996
2 45699  53.0539 293.4773 0001734  90.0880 270.0307 15.06406302201385
STARLINK-1400           
1 45700U 20035AV  24020.13524283  .00015068  00000+0  10278-2 0  9991
2 45700  53.0536 296.1710 0001490 102.2579 257.8577 15.06418057201243
STARLINK-1403           
1 45701U 20035AW  24020.43012402 -.00011162  00000+0 -73191-3 0  9997
2 45701  53.0547 294.8495 0001124 106.3446 253.7666 15.06387539201696
STARLINK-1405           
1 45702U 20035AX  24020.41170144 -.00005723  00000+0 -36572-3 0  9992
2 45702  53.0540 294.9364 0001167  88.6402 271.4721 15.06387249201694
STARLINK-1407           
1 45703U 20035AY  24020.73974637  .00002680  00000+0  19875-3 0  9991
2 45703  53.0534 293.4655 0001827  88.5123 271.6076 15.06405552201331
STARLINK-1409           
1 45704U 20035AZ  24020.83186593  .00001657  00000+0  13014-3 0  9991
2 45704  53.0546 323.0507 0001532  83.5666 276.5497 15.06396037200934
STARLINK-1411           
1 45706U 20035BB  24020.78397378  .00006059  00000+0  42527-3 0  9994
2 45706  53.0551 293.2599 0001809  80.4083 279.7110 15.06405207201340
STARLINK-1412           
1 45707U 20035BC  24020.05044748 -.00009847  00000+0 -64310-3 0  9999
2 45707  53.0557 296.5493 0001281 107.3002 252.8127 15.06397992201644
STARLINK-1418           
1 45708U 20035BD  24020.75448839  .00003392  00000+0  24653-3 0  9999
2 45708  53.0544 293.3939 0001322  86.7614 273.3527 15.06396197201341
STARLINK-1421           
1 45709U 20035BE  24020.79135299  .00017707  00000+0  12048-2 0  9996
2 45709  53.0546 293.2264 0000860 349.4893  10.6078 15.06395408201345
