OBJECT_NAME,OBJECT_ID,EPOCH,MEAN_MOTION,ECCENTRICITY,INCLINATION,RA_OF_ASC_NODE,ARG_OF_PERICENTER,MEAN_ANOMALY,EPHEMERIS_TYPE,CLASSIFICATION_TYPE,NORAD_CAT_ID,ELEMENT_SET_NO,REV_AT_EPOCH,BSTAR,MEAN_MOTION_DOT,MEAN_MOTION_DDOT
STARLINK-1392,2020-035W,2024-01-20T01:40:32.022048,15.06425918,0.0001409,53.0548,326.468,103.713,256.4016,0,U,45677,999,20122,0.0014344,0.00021163,0.0
STARLINK-1393,2020-035X,2024-01-20T03:06:47.078784,15.06419346,0.000143,53.0547,316.2007,116.9787,243.1348,0,U,45678,999,20135,0.0011006,0.00016158,0.0
STARLINK-1394,2020-035Y,2024-01-20T19:07:30.052704,15.06397623,0.0001835,53.0537,313.2094,85.3298,274.79,0,U,45679,999,20107,0.0010199,0.00014941,0.0
STARLINK-1395,2020-035Z,2024-01-20T19:18:05.722560,15.06401369,0.0001935,53.0535,313.169,84.0653,276.0556,0,U,45680,999,20106,0.0001976,2.663e-05,0.0
STARLINK-1396,2020-035AA,2024-01-20T04:03:27.020736,15.19519452,0.0003248,53.0471,306.5339,119.0247,241.1073,0,U,45681,999,20151,0.0031693,0.00068491,0.0
STARLINK-1397,2020-035AB,2024-01-20T19:23:26.230272,15.06396076,0.0001417,53.0539,313.1547,63.1474,296.966,0,U,45682,999,20106,0.00040973,5.826e-05,0.0
STARLINK-1399,2020-035AC,2024-01-20T18:56:53.098080,15.06400256,0.0001849,53.0546,313.2418,64.2021,295.9159,0,U,45683,999,20106,0.00054241,7.807e-05,0.0
STARLINK-1401,2020-035AD,2024-01-20T03:57:46.449216,15.22074369,0.0002102,53.0491,297.845,319.4052,40.6787,0,U,45684,999,20164,0.0010034,0.00022998,0.0
STARLINK-1402,2020-035AE,2024-01-20T19:51:48.939264,15.06386122,0.0001317,53.0537,307.491,101.6466,258.4671,0,U,45685,999,20115,0.00097565,0.00014275,0.0
STARLINK-1404,2020-035AF,2024-01-20T19:44:39.180480,15.06385071,0.0001982,53.0549,313.0893,98.0242,262.0972,0,U,45686,999,20107,0.00087192,0.00012724,0.0
STARLINK-1408,2020-035AH,2024-01-19T23:01:32.674944,15.2787068,0.0006866,53.0838,273.0352,141.9444,218.2041,0,U,45688,999,20198,0.00057446,0.00015529,0.0
STARLINK-1413,2020-035AJ,2024-01-20T02:40:14.225664,15.06439493,0.00015,53.0554,316.2782,109.6282,250.4869,0,U,45689,999,20128,0.0013753,0.00020285,0.0
STARLINK-1414,2020-035AK,2024-01-20T19:12:50.730624,15.06398889,0.0001523,53.0544,313.4112,93.9682,266.1481,0,U,45690,999,20100,0.0011391,0.00016725,0.0
STARLINK-1415,2020-035AL,2024-01-20T05:30:05.372640,15.06459977,0.000136,53.0545,315.7507,82.8048,277.3095,0,U,45691,999,20139,0.0013934,0.00020568,0.0
STARLINK-1416,2020-035AM,2024-01-20T02:08:24.592992,15.06423713,0.000158,53.0551,316.3858,100.4412,259.6755,0,U,45692,999,20136,0.0012453,0.00018328,0.0
STARLINK-1417,2020-035AN,2024-01-20T20:05:52.922112,15.06406711,0.0001619,53.0553,313.0192,88.4091,271.7083,0,U,45693,999,20107,0.0004914,7.047e-05,0.0
STARLINK-1420,2020-035AQ,2024-01-20T18:31:38.001504,15.06414178,0.0001638,53.0553,293.3005,96.7631,263.3545,0,U,45695,999,20134,0.0003822,5.418e-05,0.0
STARLINK-1422,2020-035AR,2024-01-20T18:46:15.572352,15.06393966,0.0001775,53.0551,313.2718,74.7521,285.3664,0,U,45696,999,20106,0.00047637,6.82e-05,0.0
STARLINK-1351,2020-035AS,2024-01-20T18:11:46.169664,15.06399868,0.0001556,53.0543,293.3756,89.3118,270.8049,0,U,45697,999,20134,0.00026273,3.634e-05,0.0
STARLINK-1370,2020-035AT,2024-01-20T17:54:29.614176,15.06408126,0.0001696,53.054,293.4274,70.8167,289.3005,0,U,45698,999,20135,0.00018166,2.426e-05,0.0
STARLINK-1398,2020-035AU,2024-01-20T17:39:55.192608,15.06406302,0.0001734,53.0539,293.4773,90.088,270.0307,0,U,45699,999,20138,0.00029907,4.177e-05,0.0
STARLINK-1400,2020-035AV,2024-01-20T03:14:44.980512,15.06418057,0.000149,53.0536,296.171,102.2579,257.8577,0,U,45700,999,20124,0.0010278,0.00015068,0.0
STARLINK-1403,2020-035AW,2024-01-20T10:19:22.715328,15.06387539,0.0001124,53.0547,294.8495,106.3446,253.7666,0,U,45701,999,20169,-0.00073191,-0.00011162,0.0
STARLINK-1405,2020-035AX,2024-01-20T09:52:51.004416,15.06387249,0.0001167,53.054,294.9364,88.6402,271.4721,0,U,45702,999,20169,-0.00036572,-5.723e-05,0.0
STARLINK-1407,2020-035AY,2024-01-20T17:45:14.086368,15.06405552,0.0001827,53.0534,293.4655,88.5123,271.6076,0,U,45703,999,20133,0.00019875,2.68e-05,0.0
STARLINK-1409,2020-035AZ,2024-01-20T19:57:53.216352,15.06396037,0.0001532,53.0546,323.0507,83.5666,276.5497,0,U,45704,999,20093,0.00013014,1.657e-05,0.0
STARLINK-1411,2020-035BB,2024-01-20T18:48:55.334592,15.06405207,0.0001809,53.0551,293.2599,80.4083,279.711,0,U,45706,999,20134,0.00042527,6.059e-05,0.0
STARLINK-1412,2020-035BC,2024-01-20T01:12:38.662272,15.06397992,0.0001281,53.0557,296.5493,107.3002,252.8127,0,U,45707,999,20164,-0.0006431,-9.847e-05,0.0
STARLINK-1418,2020-035BD,2024-01-20T18:06:27.796896,15.06396197,0.0001322,53.0544,293.3939,86.7614,273.3527,0,U,45708,999,20134,0.00024653,3.392e-05,0.0
STARLINK-1421,2020-035BE,2024-01-20T18:59:32.898336,15.06395408,8.6e-05,53.0546,293.2264,349.4893,10.6078,0,U,45709,999,20134,0.0012048,0.00017707,0.0
